1 43902U 18111AC  19203.68705678  .00001391  00000-0  59341-4 0  9992
2 43902  97.2871 107.9703 0021100 229.9722 129.9665 15.24394934 31622
1 43902U 18111AC  19204.54040578  .00001253  00000-0  53738-4 0  9990
2 43902  97.2871 108.8004 0021162 226.7691 133.1780 15.24396019 31759
1 43902U 18111AC  19204.80297491  .00001120  00000-0  48312-4 0  9992
2 43902  97.2871 109.0557 0021164 225.7613 134.1888 15.24395758 31793
1 43902U 18111AC  19205.78760662  .00001031  00000-0  44726-4 0  9991
2 43902  97.2870 110.0132 0021234 221.9986 137.9625 15.24397405 31940
1 43902U 18111AC  19206.70659514  .00001031  00000-0  44713-4 0  9993
2 43902  97.2870 110.9068 0021265 218.6099 141.3619 15.24399300 32083
1 43902U 18111AC  19207.69122487  .00000973  00000-0  42356-4 0  9991
2 43902  97.2870 111.8644 0021334 214.9003 145.0838 15.24400790 32231
1 43902U 18111AC  19208.67585233  .00001030  00000-0  44655-4 0  9991
2 43902  97.2868 112.8219 0021438 211.2811 148.7153 15.24403338 32386
1 43902U 18111AC  19209.52919495  .00001063  00000-0  46004-4 0  9993
2 43902  97.2868 113.6518 0021531 208.1242 151.8835 15.24405502 32516
1 43902U 18111AC  19209.79176208  .00001060  00000-0  45859-4 0  9993
2 43902  97.2868 113.9072 0021531 207.1322 152.8793 15.24406024 32550
1 43902U 18111AC  19210.77638701  .00001100  00000-0  47487-4 0  9998
2 43902  97.2865 114.8647 0021637 203.4788 156.5464 15.24408439 32702
1 43902U 18111AC  19211.69536942  .00001145  00000-0  49284-4 0  9990
2 43902  97.2864 115.7584 0021724 200.0891 159.9494 15.24410611 32846
1 43902U 18111AC  19212.67999137  .00001267  00000-0  54237-4 0  9997
2 43902  97.2863 116.7159 0021824 196.5303 163.5226 15.24413640 32997
1 43902U 18111AC  19213.20512234  .00001234  00000-0  52879-4 0  9990
2 43902  97.2862 117.2265 0021889 194.6186 165.4422 15.24414824 33073
1 43902U 18111AC  19213.79589371  .00001311  00000-0  55991-4 0  9994
2 43902  97.2862 117.8010 0021942 192.5226 167.5470 15.24416891 33161
1 43902U 18111AC  19214.32102316  .00001331  00000-0  56808-4 0  9994
2 43902  97.2860 118.3117 0021997 190.5709 169.5070 15.24418540 33247
1 43902U 18111AC  19214.78051146  .00001341  00000-0  57228-4 0  9996
2 43902  97.2860 118.7585 0022037 188.9381 171.1467 15.24419802 33312
1 43902U 18111AC  19215.50256385  .00001497  00000-0  63532-4 0  9996
2 43902  97.2859 119.4607 0022115 186.3069 173.7893 15.24422444 33424
1 43902U 18111AC  19215.63384601  .00001483  00000-0  62946-4 0  9996
2 43902  97.2859 119.5884 0022131 185.8358 174.2625 15.24422728 33441
1 43902U 18111AC  19216.81538436  .00001480  00000-0  62813-4 0  9994
2 43902  97.2858 120.7374 0022276 181.5612 178.5560 15.24425806 33629
1 43902U 18111AC  19217.79999719  .00001614  00000-0  68238-4 0  9993
2 43902  97.2856 121.6949 0022374 178.0439 182.0890 15.24429352 33774
1 43902U 18111AC  19218.19384170  .00001668  00000-0  70421-4 0  9993
2 43902  97.2857 122.0779 0022412 176.6637 183.4755 15.24430836 33839
1 43902U 18111AC  19219.50665694  .00001281  00000-0  54755-4 0  9995
2 43902  97.2854 123.3543 0022570 171.9935 188.1668 15.24431845 34032
1 43902U 18111AC  19219.70357871  .00001277  00000-0  54591-4 0  9995
2 43902  97.2854 123.5458 0022586 171.3079 188.8554 15.24432379 34066
1 43902U 18111AC  19220.75382744  .00001200  00000-0  51434-4 0  9998
2 43902  97.2853 124.5670 0022709 167.6409 192.5390 15.24434661 34228
1 43902U 18111AC  19221.67279454  .00001077  00000-0  46464-4 0  9992
2 43902  97.2852 125.4606 0022802 164.4617 195.7325 15.24436121 34367
1 43902U 18111AC  19222.19791779  .00001076  00000-0  46407-4 0  9995
2 43902  97.2852 125.9712 0022860 162.6423 197.5602 15.24437418 34446
1 43902U 18111AC  19222.78868184  .00000862  00000-0  37771-4 0  9991
2 43902  97.2851 126.5456 0022931 160.5913 199.6203 15.24437428 34538
1 43902U 18111AC  19224.49532806  .00000920  00000-0  40073-4 0  9994
2 43902  97.2849 128.2051 0023098 154.6316 205.6061 15.24441697 34792
1 43902U 18111AC  19225.54557062  .00000860  00000-0  37675-4 0  9999
2 43902  97.2848 129.2262 0023208 151.0793 209.1736 15.24443409 34958
1 43902U 18111AC  19225.67685084  .00000851  00000-0  37310-4 0  9995
2 43902  97.2848 129.3538 0023220 150.6285 209.6263 15.24443616 34972
1 43902U 18111AC  19226.72709140  .00000818  00000-0  35963-4 0  9997
2 43902  97.2847 130.3751 0023315 147.0958 213.1737 15.24445521 35134
1 43902U 18111AC  19226.92401137  .00000799  00000-0  35194-4 0  9998
2 43902  97.2847 130.5666 0023326 146.4232 213.8490 15.24445792 35167
1 43902U 18111AC  19227.51477062  .00000873  00000-0  38158-4 0  9990
2 43902  97.2846 131.1409 0023379 144.3655 215.9149 15.24447431 35258
1 43902U 18111AC  19228.17116943  .00000942  00000-0  40957-4 0  9998
2 43902  97.2846 131.7789 0023445 142.0927 218.1967 15.24449140 35359
1 43902U 18111AC  19228.69628791  .00000957  00000-0  41574-4 0  9996
2 43902  97.2844 132.2895 0023492 140.3359 219.9603 15.24450301 35439
1 43902U 18111AC  19229.22140580  .00001004  00000-0  43466-4 0  9997
2 43902  97.2844 132.8000 0023546 138.5767 221.7261 15.24451712 35512
1 43902U 18111AC  19229.68088305  .00001124  00000-0  48298-4 0  9994
2 43902  97.2843 133.2468 0023585 137.0351 223.2734 15.24453539 35588
1 43902U 18111AC  19230.73111578  .00001208  00000-0  51701-4 0  9997
2 43902  97.2842 134.2679 0023657 133.5122 226.8087 15.24456704 35744
1 43902U 18111AC  19231.71570874  .00001126  00000-0  48377-4 0  9998
2 43902  97.2841 135.2250 0023718 130.1859 230.1460 15.24458362 35898
1 43902U 18111AC  19232.70030093  .00001036  00000-0  44745-4 0  9997
2 43902  97.2839 136.1823 0023843 126.9586 233.3840 15.24459677 36045
1 43902U 18111AC  19233.15977728  .00000888  00000-0  38763-4 0  9999
2 43902  97.2839 136.6290 0023893 125.4267 234.9206 15.24459579 36115
1 43902U 18111AC  19233.68489198  .00001270  00000-0  54189-4 0  9992
2 43902  97.2817 137.1384 0023516 123.2456 237.1295 15.24463819 36192
1 43902U 18111AC  19234.73512162  .00000723  00000-0  32089-4 0  9994
2 43902  97.2837 138.1604 0023987 120.1504 240.2115 15.24461256 36359
1 43902U 18111AC  19235.71971105  .00000570  00000-0  25876-4 0  9995
2 43902  97.2836 139.1180 0024012 116.8194 243.5504 15.24461732 36509
1 43902U 18111AC  19236.76993825  .00000584  00000-0  26450-4 0  9998
2 43902  97.2835 140.1389 0024096 113.3980 246.9795 15.24463163 36664
1 43902U 18111AC  19237.57574760 -.00000077  00000-0  00000+0 0  9997
2 43902  97.2801 140.9003 0014624 259.1030 200.7704 15.33560698 36781
1 43902U 18111AC  19237.68888503  .00000767  00000-0  33829-4 0  9997
2 43902  97.2836 141.0323 0024130 110.3863 249.9970 15.24465630 36804
1 43902U 18111AC  19238.80474802  .00000877  00000-0  38279-4 0  9991
2 43902  97.2834 142.1170 0024179 106.7395 253.6499 15.24468069 36971
1 43902U 18111AC  19239.85496923  .00001063  00000-0  45789-4 0  9997
2 43902  97.2831 143.1381 0024227 103.2809 257.1132 15.24471336 37132
1 43902U 18111AC  19240.70827139  .00001343  00000-0  57105-4 0  9996
2 43902  97.2830 143.9677 0024266 100.4131 259.9843 15.24475143 37260
1 43902U 18111AC  19241.16774132  .00001396  00000-0  59249-4 0  9990
2 43902  97.2830 144.4143 0024284  98.9207 261.4781 15.24476686 37339
1 43902U 18111AC  19241.95540452  .00001326  00000-0  56402-4 0  9994
2 43902  97.2829 145.1801 0024299  96.3069 264.0938 15.24478062 37456
1 43902U 18111AC  19242.21795869  .00001432  00000-0  60707-4 0  9999
2 43902  97.2829 145.4354 0024300  95.4394 264.9617 15.24479228 37498
1 43902U 18111AC  19242.67742772  .00001383  00000-0  58720-4 0  9991
2 43902  97.2828 145.8819 0024307  93.9925 266.4092 15.24480151 37566
1 43902U 18111AC  19243.53072406  .00001956  00000-0  81825-4 0  9995
2 43902  97.2827 146.7115 0024299  91.1152 269.2870 15.24486186 37699
1 43902U 18111AC  19243.79327600  .00002103  00000-0  87744-4 0  9993
2 43902  97.2827 146.9667 0024293  90.2053 270.1968 15.24488063 37737
1 43902U 18111AC  19244.77784471  .00003249  00000-0  13397-3 0  9999
2 43902  97.2825 147.9239 0024325  87.0474 273.3547 15.24495254 37882
1 43902U 18111AC  19244.90911956  .00003601  00000-0  14819-3 0  9996
2 43902  97.2824 148.0515 0024339  86.6066 273.7955 15.24497417 37900
1 43902U 18111AC  19245.69676847  .00004496  00000-0  18424-3 0  9999
2 43902  97.2820 148.8171 0024388  84.1606 276.2411 15.24506125 38025
1 43902U 18111AC  19245.95931725  .00004195  00000-0  17207-3 0  9991
2 43902  97.2820 149.0723 0024390  83.3116 277.0896 15.24507782 38061
1 43902U 18111AC  19246.68132375  .00003637  00000-0  14954-3 0  9992
2 43902  97.2817 149.7742 0024384  80.9794 279.4202 15.24513348 38177
1 43902U 18111AC  19247.20641806  .00003016  00000-0  12452-3 0  9997
2 43902  97.2816 150.2847 0024369  79.2708 281.1271 15.24516385 38257
1 43902U 18111AC  19247.79714775  .00002643  00000-0  10947-3 0  9999
2 43902  97.2815 150.8590 0024351  77.3390 283.0568 15.24519857 38341
1 43902U 18111AC  19248.51914930  .00002547  00000-0  10556-3 0  9994
2 43902  97.2814 151.5609 0024320  74.9737 285.4190 15.24523935 38454
1 43902U 18111AC  19248.71605967  .00002295  00000-0  95402-4 0  9997
2 43902  97.2816 151.7523 0024323  74.3450 286.0469 15.24523172 38484
1 43902U 18111AC  19249.70060686  .00001516  00000-0  63986-4 0  9997
2 43902  97.2816 152.7093 0024307  71.1269 289.2601 15.24524640 38633
1 43902U 18111AC  19250.68515302  .00001251  00000-0  53295-4 0  9994
2 43902  97.2818 153.6663 0024258  67.8240 292.5569 15.24525532 38781
1 43902U 18111AC  19251.21024335  .00001160  00000-0  49636-4 0  9998
2 43902  97.2818 154.1768 0024231  66.1069 294.2704 15.24526686 38865
1 43902U 18111AC  19251.66969699  .00001108  00000-0  47555-4 0  9998
2 43902  97.2817 154.6234 0024206  64.5866 295.7873 15.24527694 38937
1 43902U 18111AC  19252.52296756  .00000995  00000-0  42998-4 0  9990
2 43902  97.2816 155.4529 0024163  61.7428 298.6245 15.24529189 39068
1 43902U 18111AC  19252.91678423  .00000989  00000-0  42750-4 0  9997
2 43902  97.2816 155.8356 0024148  60.4529 299.9111 15.24530102 39121
